ONEWEB-0196             
1 48218U 21031J   26160.37691898 -.00000021  00000+0 -91986-4 0  9997
2 48218  87.8961 291.2637 0001921 104.9777 255.1565 13.14502860247206
ONEWEB-0183             
1 48219U 21031K   26160.35154986  .00000303  00000+0  78152-3 0  9998
2 48219  87.8957 291.2669 0002069  97.9645 262.1719 13.14503239247295
ONEWEB-0185             
1 48220U 21031L   26160.37770192 -.00000079  00000+0 -24651-3 0  9992
2 48220  87.8967 291.2547 0002276 104.7649 255.3733 13.14502293247226
ONEWEB-0187             
1 48221U 21031M   26160.43387269  .00000303  00000+0  78182-3 0  9995
2 48221  87.8953 291.2600 0002051 106.0458 254.0898 13.14502851247246
ONEWEB-0192             
1 48222U 21031N   26160.40385948 -.00000034  00000+0 -12703-3 0  9995
2 48222  87.8954 291.2562 0001823 102.7432 257.3901 13.14505035247154
ONEWEB-0219             
1 48223U 21031P   26160.38323883 -.00006778  00000+0 -18321-1 0  9994
2 48223  87.8958 291.2518 0002066  99.6958 260.4406 13.14537976247353
ONEWEB-0202             
1 48224U 21031Q   26160.44035442  .00000223  00000+0  56802-3 0  9998
2 48224  87.8961 291.2529 0001561 120.9120 239.2163 13.14502719247348
ONEWEB-0204             
1 48225U 21031R   26160.39832808 -.00000065  00000+0 -21079-3 0  9998
2 48225  87.8960 291.2559 0002210  96.7556 263.3825 13.14502747247238
ONEWEB-0205             
1 48226U 21031S   26160.37373648 -.00000053  00000+0 -17819-3 0  9993
2 48226  87.8969 291.2533 0002001 107.5011 252.6338 13.14505076247244
ONEWEB-0206             
1 48227U 21031T   26160.34679117  .00000216  00000+0  54849-3 0  9994
2 48227  87.8964 291.2607 0001801  94.6668 265.4667 13.14503605247190
ONEWEB-0182             
1 48228U 21031U   26160.34203131  .00000203  00000+0  51173-3 0  9997
2 48228  87.8958 291.2697 0002090  96.8187 263.3180 13.14502453247405
ONEWEB-0186             
1 48229U 21031V   26160.35312991  .00000359  00000+0  93503-3 0  9999
2 48229  87.8968 291.2573 0001950 103.0210 257.1138 13.14502347247352
ONEWEB-0181             
1 48230U 21031W   26160.33093308  .00000023  00000+0  26861-4 0  9999
2 48230  87.8948 291.2926 0001908 106.6099 253.5240 13.14503391247209
ONEWEB-0188             
1 48231U 21031X   26160.36899072  .00000152  00000+0  37483-3 0  9999
2 48231  87.8952 291.2839 0001925 100.8288 259.3058 13.14503823247114
ONEWEB-0220             
1 48232U 21031Y   26160.33250139  .00000016  00000+0  95022-5 0  9996
2 48232  87.8964 291.2631 0002140 106.6225 253.5140 13.14501857247374
ONEWEB-0165             
1 48233U 21031Z   26160.36105037  .00000243  00000+0  62174-3 0  9998
2 48233  87.8960 291.2709 0001788 112.4827 247.6492 13.14501254247338
ONEWEB-0199             
1 48234U 21031AA  26160.34520429  .00000284  00000+0  73152-3 0  9996
2 48234  87.8964 291.2593 0001865  94.9204 265.2138 13.14502990247233
ONEWEB-0203             
1 48235U 21031AB  26160.41180682  .00000129  00000+0  31462-3 0  9994
2 48235  87.8963 291.2498 0001722 100.3504 259.7820 13.14502536247258
ONEWEB-0197             
1 48236U 21031AC  26160.38629536 -.00000221  00000+0 -63186-3 0  9990
2 48236  87.8957 291.2414 0002159  99.4907 260.6467 13.14503679247167
ONEWEB-0194             
1 48237U 21031AD  26160.44193545  .00000153  00000+0  37866-3 0  9992
2 48237  87.8961 291.2521 0001694  95.0883 265.0440 13.14501560247347
ONEWEB-0193             
1 48238U 21031AE  26160.38167112 -.00000163  00000+0 -47333-3 0  9990
2 48238  87.8960 291.2546 0001595  88.5557 271.5755 13.14502543247285
ONEWEB-0191             
1 48239U 21031AF  26160.39277639 -.00000100  00000+0 -30458-3 0  9999
2 48239  87.8966 291.2507 0002072  97.1768 262.9598 13.14502879247146
ONEWEB-0195             
1 48240U 21031AG  26160.36976883  .00000073  00000+0  16306-3 0  9998
2 48240  87.8967 291.2559 0001861 112.1429 247.9898 13.14501517247125
ONEWEB-0201             
1 48241U 21031AH  26160.43414000  .00000253  00000+0  64914-3 0  9993
2 48241  87.8958 291.2598 0002188 100.4123 259.7253 13.14504237247367
ONEWEB-0207             
1 48242U 21031AJ  26160.33806572  .00000157  00000+0  39014-3 0  9998
2 48242  87.8963 291.2632 0002172 101.2098 258.9276 13.14502915247262
ONEWEB-0208             
1 48243U 21031AK  26160.39594882 -.00000067  00000+0 -21585-3 0  9999
2 48243  87.8960 291.2586 0001807 110.7413 249.3910 13.14503706247288
ONEWEB-0200             
1 48244U 21031AL  26160.43558861  .00000261  00000+0  66828-3 0  9995
2 48244  87.8964 291.2367 0001931 103.3218 256.8127 13.14502502247218
ONEWEB-0217             
1 48245U 21031AM  26160.37533100  .00000024  00000+0  30437-4 0  9993
2 48245  87.8966 291.2533 0001853 111.2136 248.9192 13.14502297247154
ONEWEB-0211             
1 48767U 21045A   26160.51292853  .00000101  00000+0  23142-3 0  9990
2 48767  87.9005 260.6118 0001643 121.1644 238.9648 13.16196649243432
ONEWEB-0223             
1 48768U 21045B   26160.51146853  .00000140  00000+0  33869-3 0  9999
2 48768  87.9010 260.7186 0001570 107.7033 252.4269 13.15544921243390
