OBJECT_NAME,OBJECT_ID,EPOCH,MEAN_MOTION,ECCENTRICITY,INCLINATION,RA_OF_ASC_NODE,ARG_OF_PERICENTER,MEAN_ANOMALY,EPHEMERIS_TYPE,CLASSIFICATION_TYPE,NORAD_CAT_ID,ELEMENT_SET_NO,REV_AT_EPOCH,BSTAR,MEAN_MOTION_DOT,MEAN_MOTION_DDOT
ONEWEB-0196,2021-031J,2026-06-09T09:02:45.799872,13.14502860,.0001921,87.8961,291.2637,104.9777,255.1565,0,U,48218,999,24720,-.91986E-4,-.21E-6,0
ONEWEB-0183,2021-031K,2026-06-09T08:26:13.907904,13.14503239,.0002069,87.8957,291.2669,97.9645,262.1719,0,U,48219,999,24729,.78152E-3,.303E-5,0
ONEWEB-0185,2021-031L,2026-06-09T09:03:53.445888,13.14502293,.0002276,87.8967,291.2547,104.7649,255.3733,0,U,48220,999,24722,-.24651E-3,-.79E-6,0
ONEWEB-0187,2021-031M,2026-06-09T10:24:46.600416,13.14502851,.0002051,87.8953,291.2600,106.0458,254.0898,0,U,48221,999,24724,.78182E-3,.303E-5,0
ONEWEB-0192,2021-031N,2026-06-09T09:41:33.459072,13.14505035,.0001823,87.8954,291.2562,102.7432,257.3901,0,U,48222,999,24715,-.12703E-3,-.34E-6,0
ONEWEB-0219,2021-031P,2026-06-09T09:11:51.834912,13.14537976,.0002066,87.8958,291.2518,99.6958,260.4406,0,U,48223,999,24735,-.18321E-1,-.6778E-4,0
ONEWEB-0202,2021-031Q,2026-06-09T10:34:06.621888,13.14502719,.0001561,87.8961,291.2529,120.9120,239.2163,0,U,48224,999,24734,.56802E-3,.223E-5,0
ONEWEB-0204,2021-031R,2026-06-09T09:33:35.546112,13.14502747,.000221,87.8960,291.2559,96.7556,263.3825,0,U,48225,999,24723,-.21079E-3,-.65E-6,0
ONEWEB-0205,2021-031S,2026-06-09T08:58:10.831872,13.14505076,.0002001,87.8969,291.2533,107.5011,252.6338,0,U,48226,999,24724,-.17819E-3,-.53E-6,0
ONEWEB-0206,2021-031T,2026-06-09T08:19:22.757088,13.14503605,.0001801,87.8964,291.2607,94.6668,265.4667,0,U,48227,999,24719,.54849E-3,.216E-5,0
ONEWEB-0182,2021-031U,2026-06-09T08:12:31.505184,13.14502453,.000209,87.8958,291.2697,96.8187,263.3180,0,U,48228,999,24740,.51173E-3,.203E-5,0
ONEWEB-0186,2021-031V,2026-06-09T08:28:30.424224,13.14502347,.000195,87.8968,291.2573,103.0210,257.1138,0,U,48229,999,24735,.93503E-3,.359E-5,0
ONEWEB-0181,2021-031W,2026-06-09T07:56:32.618112,13.14503391,.0001908,87.8948,291.2926,106.6099,253.5240,0,U,48230,999,24720,.26861E-4,.23E-6,0
ONEWEB-0188,2021-031X,2026-06-09T08:51:20.798208,13.14503823,.0001925,87.8952,291.2839,100.8288,259.3058,0,U,48231,999,24711,.37483E-3,.152E-5,0
ONEWEB-0220,2021-031Y,2026-06-09T07:58:48.120096,13.14501857,.000214,87.8964,291.2631,106.6225,253.5140,0,U,48232,999,24737,.95022E-5,.16E-6,0
ONEWEB-0165,2021-031Z,2026-06-09T08:39:54.751968,13.14501254,.0001788,87.8960,291.2709,112.4827,247.6492,0,U,48233,999,24733,.62174E-3,.243E-5,0
ONEWEB-0199,2021-031AA,2026-06-09T08:17:05.650656,13.14502990,.0001865,87.8964,291.2593,94.9204,265.2138,0,U,48234,999,24723,.73152E-3,.284E-5,0
ONEWEB-0203,2021-031AB,2026-06-09T09:53:00.109248,13.14502536,.0001722,87.8963,291.2498,100.3504,259.7820,0,U,48235,999,24725,.31462E-3,.129E-5,0
ONEWEB-0197,2021-031AC,2026-06-09T09:16:15.919104,13.14503679,.0002159,87.8957,291.2414,99.4907,260.6467,0,U,48236,999,24716,-.63186E-3,-.221E-5,0
ONEWEB-0194,2021-031AD,2026-06-09T10:36:23.222880,13.14501560,.0001694,87.8961,291.2521,95.0883,265.0440,0,U,48237,999,24734,.37866E-3,.153E-5,0
ONEWEB-0193,2021-031AE,2026-06-09T09:09:36.384768,13.14502543,.0001595,87.8960,291.2546,88.5557,271.5755,0,U,48238,999,24728,-.47333E-3,-.163E-5,0
ONEWEB-0191,2021-031AF,2026-06-09T09:25:35.880096,13.14502879,.0002072,87.8966,291.2507,97.1768,262.9598,0,U,48239,999,24714,-.30458E-3,-.1E-5,0
ONEWEB-0195,2021-031AG,2026-06-09T08:52:28.026912,13.14501517,.0001861,87.8967,291.2559,112.1429,247.9898,0,U,48240,999,24712,.16306E-3,.73E-6,0
ONEWEB-0201,2021-031AH,2026-06-09T10:25:09.696000,13.14504237,.0002188,87.8958,291.2598,100.4123,259.7253,0,U,48241,999,24736,.64914E-3,.253E-5,0
ONEWEB-0207,2021-031AJ,2026-06-09T08:06:48.878208,13.14502915,.0002172,87.8963,291.2632,101.2098,258.9276,0,U,48242,999,24726,.39014E-3,.157E-5,0
ONEWEB-0208,2021-031AK,2026-06-09T09:30:09.978048,13.14503706,.0001807,87.8960,291.2586,110.7413,249.3910,0,U,48243,999,24728,-.21585E-3,-.67E-6,0
ONEWEB-0200,2021-031AL,2026-06-09T10:27:14.855904,13.14502502,.0001931,87.8964,291.2367,103.3218,256.8127,0,U,48244,999,24721,.66828E-3,.261E-5,0
ONEWEB-0217,2021-031AM,2026-06-09T09:00:28.598400,13.14502297,.0001853,87.8966,291.2533,111.2136,248.9192,0,U,48245,999,24715,.30437E-4,.24E-6,0
ONEWEB-0211,2021-045A,2026-06-09T12:18:37.024992,13.16196649,.0001643,87.9005,260.6118,121.1644,238.9648,0,U,48767,999,24343,.23142E-3,.101E-5,0
ONEWEB-0223,2021-045B,2026-06-09T12:16:30.880992,13.15544921,.000157,87.9010,260.7186,107.7033,252.4269,0,U,48768,999,24339,.33869E-3,.14E-5,0
